{"type":"FeatureCollection","metadata":{"source_kmz":"C:\\Users\\gouldj\\OneDrive - AECOM\\Documents\\!DATA\\EFL\\2026 GRSM\\GRSM_Culvert\\04_Steven Updates after Review 062626\\GRSM_Culvert 1 (3).kmz","feature_count":60,"skipped_no_geometry":0},"features":[{"type":"Feature","geometry":{"type":"LineString","coordinates":[[-83.51546830149562,35.72562924569319],[-83.51546830149562,35.72562754302147],[-83.51536553159063,35.72570927122246]]},"properties":{"FID":"0","Id":"0","In_Type":"Inlet","Out_Type":"Inlet","Material":"RCP","Coating":"","Length":"55","Size":"18","Notes":"Impaired","Stationing":"","Pla94Sta":"","Num":"5","_kml_name":"","drawn_length_ft":43.2,"xlsx_length_ft":55.0,"length_delta_ft":-11.8,"length_ratio":0.79}},{"type":"Feature","geometry":{"type":"LineString","coordinates":[[-83.5148055404758,35.72547770776855],[-83.51501108028573,35.72599021127386]]},"properties":{"FID":"1","Id":"0","In_Type":"Inlet","Out_Type":"Inlet","Material":"RCP","Coating":"","Length":"0","Size":"0","Notes":"","Stationing":"","Pla94Sta":"","Num":"2","_kml_name":"","drawn_length_ft":196.6,"xlsx_length_ft":0.0,"length_delta_ft":196.6}},{"type":"Feature","geometry":{"type":"LineString","coordinates":[[-83.51466921305084,35.72539768200663],[-83.5148034431308,35.72547089706853]]},"properties":{"FID":"2","Id":"0","In_Type":"Inlet","Out_Type":"Inlet","Material":"RCP","Coating":"","Length":"0","Size":"0","Notes":"Seperation at joint","Stationing":"","Pla94Sta":"","Num":"3","_kml_name":"","drawn_length_ft":47.9,"xlsx_length_ft":0.0,"length_delta_ft":47.9}},{"type":"Feature","geometry":{"type":"LineString","coordinates":[[-83.51546187837663,35.72563286387047],[-83.51649744247007,35.72563020344602]]},"properties":{"FID":"3","Id":"0","In_Type":"Inlet","Out_Type":"Headwall","Material":"CMP","Coating":"","Length":"0","Size":"18","Notes":"connected to drop outs at underpass. Channel to river","Stationing":"","Pla94Sta":"","Num":"6","_kml_name":"","drawn_length_ft":306.7,"xlsx_length_ft":0.0,"length_delta_ft":306.7}},{"type":"Feature","geometry":{"type":"LineString","coordinates":[[-83.51443431041099,35.72414450214227],[-83.51491879710585,35.72374947396813]]},"properties":{"FID":"4","Id":"0","In_Type":"Wingwalls","Out_Type":"Headwall","Material":"RCP","Coating":"","Length":"78","Size":"0","Notes":"Box Culvert 8x6, piping at inlet, major scour at outlet","Stationing":"","Pla94Sta":"203+00","Num":"7","_kml_name":"","drawn_length_ft":203.4,"xlsx_length_ft":78.0,"length_delta_ft":125.4,"length_ratio":2.61}},{"type":"Feature","geometry":{"type":"LineString","coordinates":[[-83.51545532417349,35.72256001442886],[-83.51594033520462,35.72307349448839]]},"properties":{"FID":"5","Id":"0","In_Type":"HW","Out_Type":"HW","Material":"CMP","Coating":"","Length":"90","Size":"24","Notes":"Partial Impairment","Stationing":"","Pla94Sta":"194+75","Num":"9","_kml_name":"","drawn_length_ft":236.1,"xlsx_length_ft":90.0,"length_delta_ft":146.1,"length_ratio":2.62}},{"type":"Feature","geometry":{"type":"LineString","coordinates":[[-83.51654659899351,35.72197469633502],[-83.51674650218877,35.72232588770735]]},"properties":{"FID":"6","Id":"0","In_Type":"I HW","Out_Type":"Projecting","Material":"CMP","Coating":"","Length":"131","Size":"0","Notes":"8x6 Box Culvert, impaired","Stationing":"","Pla94Sta":"190+10","Num":"10","_kml_name":"","drawn_length_ft":141.1,"xlsx_length_ft":131.0,"length_delta_ft":10.1,"length_ratio":1.08}},{"type":"Feature","geometry":{"type":"LineString","coordinates":[[-83.51792953585249,35.72128029065585],[-83.51780828309472,35.7216075400633]]},"properties":{"FID":"7","Id":"0","In_Type":"I HW","Out_Type":"Projecting","Material":"CMP","Coating":"poor","Length":"42","Size":"18","Notes":"minor corrosion","Stationing":"","Pla94Sta":"185+80","Num":"11","_kml_name":"","drawn_length_ft":124.7,"xlsx_length_ft":42.0,"length_delta_ft":82.7,"length_ratio":2.97}},{"type":"Feature","geometry":{"type":"LineString","coordinates":[[-83.51935179793023,35.72121377638428],[-83.51940750865677,35.72139469507305]]},"properties":{"FID":"8","Id":"0","In_Type":"I HW","Out_Type":"HW","Material":"CMP","Coating":"poor","Length":"70","Size":"42","Notes":"minor corrosion","Stationing":"","Pla94Sta":"182+55","Num":"12","_kml_name":"","drawn_length_ft":68.0,"xlsx_length_ft":70.0,"length_delta_ft":-2.0,"length_ratio":0.97}},{"type":"Feature","geometry":{"type":"LineString","coordinates":[[-83.52012847100032,35.72114460148294],[-83.52030215738309,35.72132019919214]]},"properties":{"FID":"9","Id":"0","In_Type":"HW","Out_Type":"HW","Material":"CMP","Coating":"poor","Length":"58","Size":"42","Notes":"Upstream repaired, minor corrosion, Downstream scour","Stationing":"","Pla94Sta":"179+80","Num":"13","_kml_name":"","drawn_length_ft":82.2,"xlsx_length_ft":58.0,"length_delta_ft":24.2,"length_ratio":1.42}},{"type":"Feature","geometry":{"type":"LineString","coordinates":[[-83.52117058929691,35.72063110899155],[-83.52135738408592,35.72082533192924]]},"properties":{"FID":"10","Id":"0","In_Type":"I HW","Out_Type":"Projecting","Material":"CMP","Coating":"","Length":"78","Size":"24","Notes":"","Stationing":"","Pla94Sta":"177+15","Num":"14","_kml_name":"","drawn_length_ft":89.9,"xlsx_length_ft":78.0,"length_delta_ft":11.9,"length_ratio":1.15}},{"type":"Feature","geometry":{"type":"LineString","coordinates":[[-83.52170557612683,35.72011711432665],[-83.52194623827276,35.72021272989063]]},"properties":{"FID":"11","Id":"0","In_Type":"I HW","Out_Type":"Projecting","Material":"CMP","Coating":"","Length":"72","Size":"18","Notes":"Impaired","Stationing":"","Pla94Sta":"172+90","Num":"15","_kml_name":"","drawn_length_ft":79.4,"xlsx_length_ft":72.0,"length_delta_ft":7.4,"length_ratio":1.1}},{"type":"Feature","geometry":{"type":"LineString","coordinates":[[-83.52227906890012,35.71903207749639],[-83.52258629717151,35.7192815125584]]},"properties":{"FID":"12","Id":"0","In_Type":"I HW","Out_Type":"Projecting","Material":"CMP","Coating":"","Length":"108","Size":"30","Notes":"Partial Impairment","Stationing":"","Pla94Sta":"167+50","Num":"16","_kml_name":"","drawn_length_ft":128.7,"xlsx_length_ft":108.0,"length_delta_ft":20.7,"length_ratio":1.19}},{"type":"Feature","geometry":{"type":"LineString","coordinates":[[-83.52417364324042,35.7184874748974],[-83.52446038962704,35.71873275439124]]},"properties":{"FID":"13","Id":"0","In_Type":"I HW","Out_Type":"Projecting","Material":"CMP","Coating":"","Length":"54","Size":"24","Notes":"Seperation upstream, minor damage","Stationing":"","Pla94Sta":"162+95","Num":"17","_kml_name":"","drawn_length_ft":123.4,"xlsx_length_ft":54.0,"length_delta_ft":69.4,"length_ratio":2.29}},{"type":"Feature","geometry":{"type":"LineString","coordinates":[[-83.52558177281763,35.71817567784074],[-83.52582243496354,35.71835859892858]]},"properties":{"FID":"14","Id":"0","In_Type":"I HW","Out_Type":"Projecting","Material":"CMP","Coating":"","Length":"38","Size":"18","Notes":"Impaired","Stationing":"","Pla94Sta":"159+65","Num":"18","_kml_name":"","drawn_length_ft":97.6,"xlsx_length_ft":38.0,"length_delta_ft":59.6,"length_ratio":2.57}},{"type":"Feature","geometry":{"type":"LineString","coordinates":[[-83.52656490328611,35.71781399172652],[-83.52676972213371,35.71797196977144]]},"properties":{"FID":"15","Id":"0","In_Type":"I HW","Out_Type":"Projecting","Material":"CMP","Coating":"Poor","Length":"128","Size":"36","Notes":"Impaired, seperation upstream, scour downstream","Stationing":"","Pla94Sta":"158+05","Num":"19","_kml_name":"","drawn_length_ft":83.7,"xlsx_length_ft":128.0,"length_delta_ft":-44.3,"length_ratio":0.65}},{"type":"Feature","geometry":{"type":"LineString","coordinates":[[-83.5271844803001,35.71750634937175],[-83.52745074480197,35.71772668793572]]},"properties":{"FID":"16","Id":"0","In_Type":"I 4B","Out_Type":"HW","Material":"CMP","Coating":"Poor","Length":"38","Size":"18","Notes":"Piping upstream, minor corrosion, Armoring downstream","Stationing":"","Pla94Sta":"155+75","Num":"20","_kml_name":"","drawn_length_ft":112.6,"xlsx_length_ft":38.0,"length_delta_ft":74.6,"length_ratio":2.96}},{"type":"Feature","geometry":{"type":"LineString","coordinates":[[-83.52759923846651,35.71731511163367],[-83.52781941872767,35.71759365340393]]},"properties":{"FID":"17","Id":"0","In_Type":"I 4b","Out_Type":"HW","Material":"CMP","Coating":"","Length":"156","Size":"24","Notes":"","Stationing":"","Pla94Sta":"151+65","Num":"21","_kml_name":"","drawn_length_ft":120.7,"xlsx_length_ft":156.0,"length_delta_ft":-35.3,"length_ratio":0.77}},{"type":"Feature","geometry":{"type":"LineString","coordinates":[[-83.52962694505773,35.71663746117156],[-83.52970375212557,35.71684948739573]]},"properties":{"FID":"18","Id":"0","In_Type":"I HW","Out_Type":"Projected","Material":"CMP","Coating":"","Length":"38","Size":"18","Notes":"Damaged Inlet","Stationing":"","Pla94Sta":"149+50","Num":"22","_kml_name":"","drawn_length_ft":80.6,"xlsx_length_ft":38.0,"length_delta_ft":42.6,"length_ratio":2.12}},{"type":"Feature","geometry":{"type":"LineString","coordinates":[[-83.53063055741094,35.71597227719921],[-83.53075344871952,35.71648779526189]]},"properties":{"FID":"19","Id":"0","In_Type":"I HW","Out_Type":"Projecting","Material":"CMP","Coating":"","Length":"142","Size":"24","Notes":"impaired","Stationing":"","Pla94Sta":"146+00","Num":"24","_kml_name":"","drawn_length_ft":191.6,"xlsx_length_ft":142.0,"length_delta_ft":49.6,"length_ratio":1.35}},{"type":"Feature","geometry":{"type":"LineString","coordinates":[[-83.53163929023539,35.71590575849659],[-83.53170585636087,35.71627992547658]]},"properties":{"FID":"20","Id":"0","In_Type":"I HW 4B","Out_Type":"Projecting","Material":"CMP","Coating":"","Length":"38","Size":"18","Notes":"Impaired","Stationing":"","Pla94Sta":"143+35","Num":"25","_kml_name":"","drawn_length_ft":137.9,"xlsx_length_ft":38.0,"length_delta_ft":99.9,"length_ratio":3.63}},{"type":"Feature","geometry":{"type":"LineString","coordinates":[[-83.53268386635814,35.71589328623366],[-83.53308838358215,35.71618014778704]]},"properties":{"FID":"21","Id":"0","In_Type":"I HW","Out_Type":"Projecting","Material":"CMP","Coating":"Poor","Length":"190","Size":"54","Notes":"Some Corrosion, Some Scour","Stationing":"","Pla94Sta":"139+20","Num":"26","_kml_name":"","drawn_length_ft":159.1,"xlsx_length_ft":190.0,"length_delta_ft":-30.9,"length_ratio":0.84}},{"type":"Feature","geometry":{"type":"LineString","coordinates":[[-83.53329320242975,35.71538607922096],[-83.53366699682662,35.71529045786507]]},"properties":{"FID":"22","Id":"0","In_Type":"I HW","Out_Type":"Projecting","Material":"CMP","Coating":"","Length":"128","Size":"24","Notes":"Impaired","Stationing":"","Pla94Sta":"136+00","Num":"27","_kml_name":"","drawn_length_ft":116.1,"xlsx_length_ft":128.0,"length_delta_ft":-11.9,"length_ratio":0.91}},{"type":"Feature","geometry":{"type":"LineString","coordinates":[[-83.53297061274478,35.71514078942555],[-83.53322663630429,35.71473751473108]]},"properties":{"FID":"23","Id":"0","In_Type":"HW","Out_Type":"HW","Material":"CMP","Coating":"","Length":"134","Size":"30","Notes":"","Stationing":"","Pla94Sta":"134+45","Num":"28","_kml_name":"","drawn_length_ft":165.5,"xlsx_length_ft":134.0,"length_delta_ft":31.5,"length_ratio":1.24}},{"type":"Feature","geometry":{"type":"LineString","coordinates":[[-83.53201308463227,35.71496201842106],[-83.53207453028654,35.71471672732039]]},"properties":{"FID":"24","Id":"0","In_Type":"4B","Out_Type":"I HW","Material":"CMP","Coating":"","Length":"42","Size":"18","Notes":"Impaired, downstream scour","Stationing":"","Pla94Sta":"131+00","Num":"29","_kml_name":"","drawn_length_ft":91.3,"xlsx_length_ft":42.0,"length_delta_ft":49.3,"length_ratio":2.17}},{"type":"Feature","geometry":{"type":"LineString","coordinates":[[-83.53105555651975,35.71504516777537],[-83.53084561720095,35.71461694767358]]},"properties":{"FID":"25","Id":"0","In_Type":"I HW","Out_Type":"Projecting","Material":"CMP","Coating":"","Length":"184","Size":"18","Notes":"damaged, looks like channel was diverted in the past, possible piping water.  Little to no flow. Sediments appear to show past high flow","Stationing":"","Pla94Sta":"128+00","Num":"30","_kml_name":"","drawn_length_ft":168.1,"xlsx_length_ft":184.0,"length_delta_ft":-15.9,"length_ratio":0.91}},{"type":"Feature","geometry":{"type":"LineString","coordinates":[[-83.52880254919614,35.71470009738793],[-83.5287667058978,35.71435918300777]]},"properties":{"FID":"26","Id":"0","In_Type":"HW","Out_Type":"Projecting","Material":"CMP","Coating":"","Length":"174","Size":"24","Notes":"MInor Corrosion, impaired","Stationing":"","Pla94Sta":"121+00","Num":"31","_kml_name":"","drawn_length_ft":124.8,"xlsx_length_ft":174.0,"length_delta_ft":-49.2,"length_ratio":0.72}},{"type":"Feature","geometry":{"type":"LineString","coordinates":[[-83.527343214907,35.71378128822712],[-83.52788086438196,35.71412220507943]]},"properties":{"FID":"27","Id":"0","In_Type":"I HW","Out_Type":"Projecting","Material":"CMP","Coating":"","Length":"250","Size":"18","Notes":"scour","Stationing":"","Pla94Sta":"","Num":"32","_kml_name":"","drawn_length_ft":202.1,"xlsx_length_ft":250.0,"length_delta_ft":-47.9,"length_ratio":0.81}},{"type":"Feature","geometry":{"type":"LineString","coordinates":[[-83.52732273302222,35.7131659711925],[-83.52789110532431,35.71334474622598]]},"properties":{"FID":"28","Id":"0","In_Type":"I HW","Out_Type":"Projecting","Material":"CMP","Coating":"poor","Length":"118","Size":"18","Notes":"Some Scour, Some Corrosion","Stationing":"","Pla94Sta":"115+35","Num":"33","_kml_name":"","drawn_length_ft":180.5,"xlsx_length_ft":118.0,"length_delta_ft":62.5,"length_ratio":1.53}},{"type":"Feature","geometry":{"type":"LineString","coordinates":[[-83.52808568322955,35.71216399207096],[-83.52834170678905,35.71244670944737]]},"properties":{"FID":"29","Id":"0","In_Type":"Raise 4B","Out_Type":"Projecting","Material":"CMP","Coating":"","Length":"40","Size":"18","Notes":"Downstream Scour","Stationing":"","Pla94Sta":"110+90","Num":"34","_kml_name":"","drawn_length_ft":128.0,"xlsx_length_ft":40.0,"length_delta_ft":88.0,"length_ratio":3.2}},{"type":"Feature","geometry":{"type":"LineString","coordinates":[[-83.52909953652517,35.71154034725338],[-83.52930435537277,35.71202679062979]]},"properties":{"FID":"30","Id":"0","In_Type":"I HW","Out_Type":"Projecting","Material":"CMP","Coating":"","Length":"100","Size":"24","Notes":"","Stationing":"","Pla94Sta":"107+65","Num":"35","_kml_name":"","drawn_length_ft":187.5,"xlsx_length_ft":100.0,"length_delta_ft":87.5,"length_ratio":1.88}},{"type":"Feature","geometry":{"type":"LineString","coordinates":[[-83.5301837907974,35.71119453193157],[-83.53025423474337,35.71127265644903]]},"properties":{"FID":"31","Id":"0","In_Type":"I HW","Out_Type":"HW","Material":"CMP","Coating":"","Length":"20","Size":"18","Notes":"Impaired","Stationing":"","Pla94Sta":"","Num":"36","_kml_name":"","drawn_length_ft":35.3,"xlsx_length_ft":20.0,"length_delta_ft":15.3,"length_ratio":1.76}},{"type":"Feature","geometry":{"type":"LineString","coordinates":[[-83.5304118846165,35.71143280711079],[-83.53055030938646,35.71128294516324]]},"properties":{"FID":"32","Id":"0","In_Type":"I HW","Out_Type":"Projecting","Material":"CMP","Coating":"","Length":"50","Size":"18","Notes":"Partially impaired, Downstream scour","Stationing":"","Pla94Sta":"","Num":"37","_kml_name":"","drawn_length_ft":68.3,"xlsx_length_ft":50.0,"length_delta_ft":18.3,"length_ratio":1.37}},{"type":"Feature","geometry":{"type":"LineString","coordinates":[[-83.53094290615356,35.71048845527108],[-83.53119380924186,35.71143224832209]]},"properties":{"FID":"33","Id":"0","In_Type":"HW","Out_Type":"HW","Material":"CMP","Coating":"","Length":"284","Size":"24","Notes":"Can not find the downstream culvert, kudzu, down trees tough to locate end","Stationing":"","Pla94Sta":"101+55","Num":"38","_kml_name":"","drawn_length_ft":352.2,"xlsx_length_ft":284.0,"length_delta_ft":68.2,"length_ratio":1.24}},{"type":"Feature","geometry":{"type":"LineString","coordinates":[[-83.53240736091388,35.71039698574698],[-83.53270946871409,35.71109131996309]]},"properties":{"FID":"34","Id":"0","In_Type":"i HW","Out_Type":"HW","Material":"CMP","Coating":"","Length":"220","Size":"24","Notes":"Can not find downstream, steep slope down trees, Kudzu","Stationing":"","Pla94Sta":"78+37","Num":"39","_kml_name":"","drawn_length_ft":268.6,"xlsx_length_ft":220.0,"length_delta_ft":48.6,"length_ratio":1.22}},{"type":"Feature","geometry":{"type":"LineString","coordinates":[[-83.53374155088714,35.71033395486838],[-83.53340400942629,35.71056811682564]]},"properties":{"FID":"35","Id":"0","In_Type":"I HW","Out_Type":"I 6B","Material":"CMP","Coating":"","Length":"150","Size":"18","Notes":"","Stationing":"","Pla94Sta":"","Num":"40","_kml_name":"","drawn_length_ft":131.5,"xlsx_length_ft":150.0,"length_delta_ft":-18.5,"length_ratio":0.88}},{"type":"Feature","geometry":{"type":"LineString","coordinates":[[-83.5338562494418,35.71007850467588],[-83.53374155088714,35.71033395486838]]},"properties":{"FID":"36","Id":"0","In_Type":"I 6B","Out_Type":"I 6B","Material":"CMP","Coating":"","Length":"130","Size":"18","Notes":"","Stationing":"","Pla94Sta":"","Num":"41","_kml_name":"","drawn_length_ft":99.2,"xlsx_length_ft":130.0,"length_delta_ft":-30.8,"length_ratio":0.76}},{"type":"Feature","geometry":{"type":"LineString","coordinates":[[-83.53390186669553,35.70986435163363],[-83.53385572494807,35.71009255473258]]},"properties":{"FID":"37","Id":"0","In_Type":"I 6B","Out_Type":"Projecting","Material":"CMP","Coating":"","Length":"95","Size":"18","Notes":"","Stationing":"","Pla94Sta":"","Num":"42","_kml_name":"","drawn_length_ft":84.4,"xlsx_length_ft":95.0,"length_delta_ft":-10.6,"length_ratio":0.89}},{"type":"Feature","geometry":{"type":"LineString","coordinates":[[-83.53345705750783,35.70988974375374],[-83.53397074350532,35.70963499010703]]},"properties":{"FID":"38","Id":"0","In_Type":"Previous concrete patching,","Out_Type":"","Material":"CMP","Coating":"","Length":"290","Size":"60","Notes":"High flow, Outfall area very steep","Stationing":"","Pla94Sta":"71+90","Num":"43","_kml_name":"","drawn_length_ft":178.3,"xlsx_length_ft":290.0,"length_delta_ft":-111.7,"length_ratio":0.61}},{"type":"Feature","geometry":{"type":"LineString","coordinates":[[-83.53324998565292,35.70684805347898],[-83.53352853928564,35.70754790698079]]},"properties":{"FID":"39","Id":"0","In_Type":"I HW","Out_Type":"HW","Material":"CMP","Coating":"","Length":"0","Size":"18","Notes":"Could not locate Out let Unknown outlet located in Ski Mountain Road structure.","Stationing":"","Pla94Sta":"","Num":"44","_kml_name":"","drawn_length_ft":268.3,"xlsx_length_ft":0.0,"length_delta_ft":268.3}},{"type":"Feature","geometry":{"type":"LineString","coordinates":[[-83.53344074880708,35.70725827016107],[-83.53391523726995,35.70713544653509]]},"properties":{"FID":"40","Id":"0","In_Type":"HW","Out_Type":"","Material":"","Coating":"","Length":"0","Size":"18","Notes":"Could not find outlet","Stationing":"","Pla94Sta":"62+50","Num":"44","_kml_name":"","drawn_length_ft":147.5,"xlsx_length_ft":0.0,"length_delta_ft":147.5}},{"type":"Feature","geometry":{"type":"LineString","coordinates":[[-83.5315950493643,35.70605771723236],[-83.53165731429397,35.70565057125945]]},"properties":{"FID":"41","Id":"0","In_Type":"I HW","Out_Type":"","Material":"","Coating":"","Length":"224","Size":"24","Notes":"minor flow, major concrete swale down slope, impaired","Stationing":"","Pla94Sta":"53+24","Num":"45","_kml_name":"","drawn_length_ft":149.7,"xlsx_length_ft":224.0,"length_delta_ft":-74.3,"length_ratio":0.67}},{"type":"Feature","geometry":{"type":"LineString","coordinates":[[-83.5291732713103,35.70523277878569],[-83.52949442726334,35.70518753997882]]},"properties":{"FID":"42","Id":"0","In_Type":"I HW 4A","Out_Type":"Projecting","Material":"CMP","Coating":"","Length":"64","Size":"18","Notes":"Impaired, Minor scour, minor corrosion","Stationing":"","Pla94Sta":"45+00","Num":"46","_kml_name":"","drawn_length_ft":96.6,"xlsx_length_ft":64.0,"length_delta_ft":32.6,"length_ratio":1.51}},{"type":"Feature","geometry":{"type":"LineString","coordinates":[[-83.52879312752916,35.70480167852391],[-83.52957635480239,35.7047351504981]]},"properties":{"FID":"43","Id":"0","In_Type":"HW","Out_Type":"","Material":"CMP","Coating":"","Length":"288","Size":"18","Notes":"Burried upstream, can not find downstream","Stationing":"","Pla94Sta":"43+20","Num":"47","_kml_name":"","drawn_length_ft":233.3,"xlsx_length_ft":288.0,"length_delta_ft":-54.7,"length_ratio":0.81}},{"type":"Feature","geometry":{"type":"LineString","coordinates":[[-83.52919621102123,35.70455419398701],[-83.52930435537277,35.70452758270072]]},"properties":{"FID":"44","Id":"0","In_Type":"I HW","Out_Type":"HW","Material":"CMP","Coating":"","Length":"24","Size":"18","Notes":"Impaired","Stationing":"","Pla94Sta":"","Num":"48","_kml_name":"","drawn_length_ft":33.5,"xlsx_length_ft":24.0,"length_delta_ft":9.5,"length_ratio":1.4}},{"type":"Feature","geometry":{"type":"LineString","coordinates":[[-83.52867187477136,35.70410180091226],[-83.52956324639612,35.70382238037776]]},"properties":{"FID":"45","Id":"0","In_Type":"I HW","Out_Type":"Projecting","Material":"","Coating":"","Length":"208","Size":"24","Notes":"minor scour, mass wasting above. Some flow","Stationing":"","Pla94Sta":"40+10","Num":"49","_kml_name":"","drawn_length_ft":283.1,"xlsx_length_ft":208.0,"length_delta_ft":75.1,"length_ratio":1.36}},{"type":"Feature","geometry":{"type":"LineString","coordinates":[[-83.52842363432809,35.70226825210533],[-83.52888959720636,35.70264664122028]]},"properties":{"FID":"46","Id":"0","In_Type":"I HW","Out_Type":"Projecting","Material":"CMP","Coating":"","Length":"172","Size":"18","Notes":"Some Scour, Damaged, Some impairment","Stationing":"","Pla94Sta":"34+85","Num":"50","_kml_name":"","drawn_length_ft":195.2,"xlsx_length_ft":172.0,"length_delta_ft":23.2,"length_ratio":1.13}},{"type":"Feature","geometry":{"type":"LineString","coordinates":[[-83.52860285081975,35.70156552469886],[-83.5289817656878,35.70171106046909]]},"properties":{"FID":"47","Id":"0","In_Type":"I HW","Out_Type":"Projecting","Material":"CMP","Coating":"poor","Length":"134","Size":"18","Notes":"Heavy corroded. Impaired","Stationing":"","Pla94Sta":"31+40","Num":"51","_kml_name":"","drawn_length_ft":124.2,"xlsx_length_ft":134.0,"length_delta_ft":-9.8,"length_ratio":0.93}},{"type":"Feature","geometry":{"type":"LineString","coordinates":[[-83.52860285081975,35.70053845042499],[-83.52910977746754,35.70067982985522]]},"properties":{"FID":"48","Id":"0","In_Type":"I HW","Out_Type":"","Material":"CMP","Coating":"","Length":"76","Size":"18","Notes":"Slides, minor water flow, can not find pipe","Stationing":"","Pla94Sta":"24+60","Num":"52","_kml_name":"","drawn_length_ft":158.8,"xlsx_length_ft":76.0,"length_delta_ft":82.8,"length_ratio":2.09}},{"type":"Feature","geometry":{"type":"LineString","coordinates":[[-83.5290520185525,35.69926103432568],[-83.52931090957588,35.69934087343145]]},"properties":{"FID":"49","Id":"0","In_Type":"I HW","Out_Type":"Projecting","Material":"CMP","Coating":"Poor","Length":"64","Size":"36","Notes":"Scour and Corrosion","Stationing":"","Pla94Sta":"20+20","Num":"54","_kml_name":"","drawn_length_ft":82.0,"xlsx_length_ft":64.0,"length_delta_ft":18.0,"length_ratio":1.28}},{"type":"Feature","geometry":{"type":"LineString","coordinates":[[-83.52913722319312,35.69849457484295],[-83.52955013798989,35.69871812628645]]},"properties":{"FID":"50","Id":"0","In_Type":"HW","Out_Type":"HW","Material":"CMP","Coating":"poor","Length":"79","Size":"24","Notes":"Piping, corrosion failure, deformed, silted in","Stationing":"","Pla94Sta":"18+85","Num":"55","_kml_name":"","drawn_length_ft":147.0,"xlsx_length_ft":79.0,"length_delta_ft":68.0,"length_ratio":1.86}},{"type":"Feature","geometry":{"type":"LineString","coordinates":[[-83.52928469276338,35.69814593979333],[-83.52972054727107,35.69837481488327]]},"properties":{"FID":"51","Id":"0","In_Type":"I HW","Out_Type":"Projecting","Material":"CMP","Coating":"","Length":"52","Size":"18","Notes":"Impaired","Stationing":"","Pla94Sta":"","Num":"56","_kml_name":"","drawn_length_ft":153.8,"xlsx_length_ft":52.0,"length_delta_ft":101.8,"length_ratio":2.96}},{"type":"Feature","geometry":{"type":"LineString","coordinates":[[-83.52960584871641,35.69779730321945],[-83.5297860893023,35.69785053027588]]},"properties":{"FID":"52","Id":"0","In_Type":"I-HW 4b","Out_Type":"projecting","Material":"CMP","Coating":"","Length":"48","Size":"18","Notes":"minor scour. Intermittent flow. Likely impaired","Stationing":"","Pla94Sta":"16+75","Num":"57","_kml_name":"","drawn_length_ft":56.8,"xlsx_length_ft":48.0,"length_delta_ft":8.8,"length_ratio":1.18}},{"type":"Feature","geometry":{"type":"LineString","coordinates":[[-83.53004498032571,35.69678332100921],[-83.5301564017788,35.69683654874245]]},"properties":{"FID":"53","Id":"0","In_Type":"I headwall","Out_Type":"","Material":"CMP","Coating":"poor","Length":"76","Size":"18","Notes":"","Stationing":"","Pla94Sta":"13+00","Num":"59","_kml_name":"","drawn_length_ft":38.3,"xlsx_length_ft":76.0,"length_delta_ft":-37.7,"length_ratio":0.5}},{"type":"Feature","geometry":{"type":"LineString","coordinates":[[-83.52915360870094,35.69987579337801],[-83.52886194666196,35.69983853538854]]},"properties":{"FID":"54","Id":"0","In_Type":"I HW","Out_Type":"Projecting","Material":"CMP","Coating":"","Length":"68","Size":"18","Notes":"Completely Impaired","Stationing":"","Pla94Sta":"22+45","Num":"53","_kml_name":"","drawn_length_ft":87.5,"xlsx_length_ft":68.0,"length_delta_ft":19.5,"length_ratio":1.29}},{"type":"Feature","geometry":{"type":"LineString","coordinates":[[-83.53052046728044,35.71639373425124],[-83.53039085535343,35.71612714083869]]},"properties":{"FID":"55","Id":"0","In_Type":"","Out_Type":"","Material":"CMP","Coating":"None","Length":"0","Size":"6","Notes":"Underdrain","Stationing":"","Pla94Sta":"","Num":"23","_kml_name":"","drawn_length_ft":104.6,"xlsx_length_ft":0.0,"length_delta_ft":104.6}},{"type":"Feature","geometry":{"type":"LineString","coordinates":[[-83.52976376404811,35.6977710223473],[-83.52968634252372,35.69775305820182]]},"properties":{"FID":"56","Id":"0","In_Type":"NA","Out_Type":"Projecting, No Armoring","Material":"CMP","Coating":"NA","Length":"0","Size":"6","Notes":"Under Drain","Stationing":"","Pla94Sta":"","Num":"58","_kml_name":"","drawn_length_ft":23.9,"xlsx_length_ft":0.0,"length_delta_ft":23.9}},{"type":"Feature","geometry":{"type":"LineString","coordinates":[[-83.51439674356222,35.7240380377959],[-83.51451195416399,35.72396087351395]]},"properties":{"FID":"57","Id":"0","In_Type":"","Out_Type":"","Material":"CMP","Coating":"None","Length":"0","Size":"0","Notes":"Collapsed at 6ft in, Some corrosion","Stationing":"","Pla94Sta":"","Num":"8","_kml_name":"","drawn_length_ft":44.2,"xlsx_length_ft":0.0,"length_delta_ft":44.2}},{"type":"Feature","geometry":{"type":"LineString","coordinates":[[-83.5160788183483,35.72624537227167],[-83.51625163425098,35.72623368104256]]},"properties":{"FID":"58","Id":"0","In_Type":"Inlet","Out_Type":"Headwall","Material":"RCP","Coating":"","Length":"50","Size":"18","Notes":"","Stationing":"","Pla94Sta":"","Num":"1","_kml_name":"","drawn_length_ft":51.4,"xlsx_length_ft":50.0,"length_delta_ft":1.4,"length_ratio":1.03}},{"type":"Feature","geometry":{"type":"LineString","coordinates":[[-83.51466748847656,35.7254059376602],[-83.51460700291064,35.72529837715422]]},"properties":{"FID":"59","Id":"0","In_Type":"Inlet","Out_Type":"Projected","Material":"RCP","Coating":"","Length":"0","Size":"0","Notes":"Scour at outfall","Stationing":"","Pla94Sta":"","Num":"4","_kml_name":"","drawn_length_ft":43.1,"xlsx_length_ft":0.0,"length_delta_ft":43.1}}]}
